{
"type": "FeatureCollection",
"name": "sample",
"crs": { "type": "name", "properties": { "name": "urn:ogc:def:crs:OGC:1.3:CRS84" } },
"features": [
{ "type": "Feature", "properties": { "city_fips": "4278528", "city_name": "Uniontown", "state": "PA", "pop_20": 9984.0, "n_poi": 625, "kde_intensity": 3.9744460810267275, "downtown_score": 214.62008837544329, "cty_fips": "42051", "cty_type": "Metro", "cty_centrality": "Outlying", "cty_msa_adj": "In Metro", "rucc": 1.0 }, "geometry": { "type": "Polygon", "coordinates": [ [ [ -79.729269524594386, 39.89915928060703 ], [ -79.729270272700958, 39.899160195330133 ], [ -79.729282684180546, 39.899175411531182 ], [ -79.72928336432328, 39.899176247402018 ], [ -79.729295779996534, 39.899191543017608 ], [ -79.72929634494264, 39.899192240423822 ], [ -79.729308758785791, 39.899207596064763 ], [ -79.729309279011147, 39.899208240781888 ], [ -79.729321708585516, 39.899223673791496 ], [ -79.729322128521318, 39.899224195993604 ], [ -79.729334566212287, 39.899239686201781 ], [ -79.729334961182587, 39.899240178815042 ], [ -79.729347421690036, 39.899255742125774 ], [ -79.729360202275615, 39.899271740527276 ], [ -79.729373000506769, 39.89928779602964 ], [ -79.729385735824721, 39.89930379853292 ], [ -79.72939850227533, 39.89931986671521 ], [ -79.729411272103562, 39.899335963313838 ], [ -79.729423984222393, 39.89935200295109 ], [ -79.729436785254848, 39.899368179776651 ], [ -79.729449435592599, 39.899384171372851 ], [ -79.72946219438559, 39.899400316420241 ], [ -79.729474883829639, 39.89941638177342 ], [ -79.729487597685448, 39.899432488859247 ], [ -79.729500302886706, 39.899448595327037 ], [ -79.729512999327667, 39.899464701108386 ], [ -79.729525664050314, 39.899480774132876 ], [ -79.729538369893675, 39.899496915159816 ], [ -79.729551008620405, 39.899512980860983 ], [ -79.729563677922442, 39.899529103616857 ], [ -79.729576284722313, 39.899545160957189 ], [ -79.729588912327102, 39.899561267211389 ], [ -79.729601494558111, 39.899577338123834 ], [ -79.72961406612383, 39.899593423436627 ], [ -79.729626588259606, 39.899609473305496 ], [ -79.72963905771222, 39.899625485138898 ], [ -79.729639439467277, 39.899625976060378 ], [ -79.729651609013274, 39.899641648177209 ], [ -79.729652013913721, 39.899642170414026 ], [ -79.729664108722858, 39.899657794144183 ], [ -79.72966454114372, 39.899658353652221 ], [ -79.729676571676322, 39.899673945553232 ], [ -79.729677099474031, 39.899674630973571 ], [ -79.729689047205568, 39.899690178134513 ], [ -79.729689620097616, 39.899690925259677 ], [ -79.729701495804363, 39.899706446842494 ], [ -79.729702176283453, 39.899707338570195 ], [ -79.729713961575996, 39.899722823177861 ], [ -79.729714706581419, 39.899723804873503 ], [ -79.729726412382718, 39.899739274431795 ], [ -79.729727278927754, 39.899740423489718 ], [ -79.729738886795715, 39.899755868198909 ], [ -79.729739838519791, 39.899757139275167 ], [ -79.729751359309617, 39.89977258396403 ], [ -79.729752530726216, 39.899774161718994 ], [ -79.729763945919473, 39.899789608839761 ], [ -79.729765080763499, 39.899791151575506 ], [ -79.729776400218086, 39.899806610407403 ], [ -79.729777836547385, 39.899808583549223 ], [ -79.729789041198273, 39.899824066851316 ], [ -79.729790455415781, 39.899826032625612 ], [ -79.729801555172742, 39.899841552602759 ], [ -79.729803288453269, 39.899843993938298 ], [ -79.729814262701595, 39.899859565316042 ], [ -79.729815991690188, 39.899862036925079 ], [ -79.729826843335772, 39.899877665952218 ], [ -79.729828801473175, 39.899880510556358 ], [ -79.729839529101056, 39.899896230207048 ], [ -79.729841657499591, 39.899899379115773 ], [ -79.72985224169625, 39.899915189995234 ], [ -79.729854512596845, 39.899918618197013 ], [ -79.729864963896802, 39.899934563658455 ], [ -79.729867412978834, 39.89993834418155 ], [ -79.729877702527574, 39.899954415913989 ], [ -79.729880288181121, 39.899958506534155 ], [ -79.729890419526043, 39.899974742663758 ], [ -79.729893165245144, 39.899979205365021 ], [ -79.729903114742953, 39.899995608406897 ], [ -79.729905969749339, 39.900000387862363 ], [ -79.729915738861493, 39.900016996782959 ], [ -79.729918728993795, 39.900022166630492 ], [ -79.729928291838249, 39.900038984015609 ], [ -79.729931351185428, 39.900044462676995 ], [ -79.729940706927607, 39.900061527339133 ], [ -79.729943862079196, 39.900067397471695 ], [ -79.729952983048747, 39.900084711548359 ], [ -79.729956171864984, 39.900090895536039 ], [ -79.729965048348433, 39.90010848722094 ], [ -79.72996827609137, 39.900115034392115 ], [ -79.729976883677836, 39.900132911728342 ], [ -79.729980007472193, 39.90013955921831 ], [ -79.729988344764791, 39.90015774596241 ], [ -79.729991576460179, 39.900164991217395 ], [ -79.729999609584169, 39.900183512186089 ], [ -79.73000271970335, 39.900190893848475 ], [ -79.730010431536414, 39.900209749243125 ], [ -79.730013455727786, 39.900217378520708 ], [ -79.730020824696837, 39.900236575793436 ], [ -79.730023738667612, 39.900244428337679 ], [ -79.730030742569738, 39.90026397138044 ], [ -79.730033524086636, 39.900272022297237 ], [ -79.730040140307835, 39.900291911057835 ], [ -79.730042769520651, 39.90030013557417 ], [ -79.730048975292476, 39.900320365726735 ], [ -79.730051434919915, 39.90032873980099 ], [ -79.730057207611395, 39.900349302488323 ], [ -79.730059483839383, 39.900357806655883 ], [ -79.730064801090023, 39.90037868840875 ], [ -79.730066880653226, 39.900387297617733 ], [ -79.730071721126819, 39.900408480098669 ], [ -79.730073618498366, 39.900417294580443 ], [ -79.730077956859986, 39.900438767068664 ], [ -79.730079598200049, 39.900447446282143 ], [ -79.730083424441816, 39.900469159514486 ], [ -79.730084881465629, 39.900478097849806 ], [ -79.730088169462661, 39.900500042276875 ], [ -79.730089372515693, 39.900508827381408 ], [ -79.730092116926087, 39.900530945724057 ], [ -79.730093116629803, 39.900539957541739 ], [ -79.730095295402634, 39.900562233309721 ], [ -79.730096053363141, 39.900571167541358 ], [ -79.730097660639757, 39.900593527062362 ], [ -79.730098184289815, 39.900602394361186 ], [ -79.730099221466418, 39.900624826445402 ], [ -79.7300995198257, 39.900633784803134 ], [ -79.730099977354328, 39.900656234080621 ], [ -79.730100044674501, 39.900665107099414 ], [ -79.730099927913656, 39.900687539726562 ], [ -79.730099762582469, 39.900696593879715 ], [ -79.730099062595542, 39.90071894392279 ], [ -79.73009867214904, 39.90072779738091 ], [ -79.73009740648402, 39.900750044447314 ], [ -79.730096775387949, 39.900759066763442 ], [ -79.730094942089679, 39.900781149506081 ], [ -79.730094099818899, 39.900789942349796 ], [ -79.730091721571938, 39.900811845538335 ], [ -79.730090632984101, 39.900820794791677 ], [ -79.730087713674166, 39.900842463503771 ], [ -79.730086432976321, 39.900851147749229 ], [ -79.730082999362907, 39.900872574234974 ], [ -79.730081472778281, 39.900881384361874 ], [ -79.730077533913501, 39.900902522900346 ], [ -79.730075819430382, 39.900911131136077 ], [ -79.730071400311431, 39.900931972305209 ], [ -79.730069491182419, 39.900940464327427 ], [ -79.730064613037925, 39.900960992362229 ], [ -79.730062489223201, 39.900969469971514 ], [ -79.73005716925212, 39.900989663030131 ], [ -79.7300549601743, 39.900997673590851 ], [ -79.730049236904534, 39.90101753684084 ], [ -79.730046808124413, 39.901025613905333 ], [ -79.730040685796993, 39.901045153967267 ], [ -79.730038146085619, 39.901052953669648 ], [ -79.730031654110405, 39.901072162613225 ], [ -79.73002900654221, 39.901079725964863 ], [ -79.730022167065044, 39.901098609374742 ], [ -79.730019435676724, 39.901105911933179 ], [ -79.730012270279445, 39.901124478695046 ], [ -79.73000948043773, 39.901131497663314 ], [ -79.730002009959293, 39.901149759532352 ], [ -79.729999187771938, 39.901156474415856 ], [ -79.729991432166202, 39.901174445572494 ], [ -79.729988602801853, 39.901180841025152 ], [ -79.729980580855866, 39.901198537713661 ], [ -79.729977771090631, 39.901204596710869 ], [ -79.729969500732324, 39.901222036629299 ], [ -79.729966721138695, 39.901227776565293 ], [ -79.729958212280465, 39.90124498908029 ], [ -79.729955521323618, 39.901250330174847 ], [ -79.729946801532847, 39.901267316294401 ], [ -79.729944176309218, 39.901272341610834 ], [ -79.729935247872206, 39.90128914032551 ], [ -79.729932745115477, 39.901293775365957 ], [ -79.729923633289204, 39.901310388450831 ], [ -79.729921231991568, 39.90131470370828 ], [ -79.729911936818056, 39.901331170013961 ], [ -79.729909679758961, 39.901335116580803 ], [ -79.729900224308409, 39.901351437553018 ], [ -79.729898026478395, 39.901355185130541 ], [ -79.729888413401795, 39.901371379132463 ], [ -79.729886501779106, 39.901374566496713 ], [ -79.729876743974259, 39.901390671058294 ], [ -79.72987497158276, 39.901393569315488 ], [ -79.729865076638987, 39.901409601571217 ], [ -79.729863303681398, 39.901412448417098 ], [ -79.729853276807773, 39.901428404909296 ], [ -79.729851787807434, 39.901430757010282 ], [ -79.729841637844501, 39.90144667284676 ], [ -79.729840148528083, 39.901448991344111 ], [ -79.729829880012318, 39.901464862029371 ], [ -79.729828661890267, 39.901466733805613 ], [ -79.729818281713193, 39.901482591927902 ], [ -79.72981705407993, 39.901484456639842 ], [ -79.729806566386131, 39.901500295638485 ], [ -79.729805591185823, 39.901501761798094 ], [ -79.729795001214057, 39.901517611718234 ], [ -79.729794010905522, 39.901519087209515 ], [ -79.729783322736154, 39.90153494009941 ], [ -79.729782501793466, 39.901536153227383 ], [ -79.729771719534881, 39.901552027564556 ], [ -79.729770993543951, 39.901553092947239 ], [ -79.729760121054412, 39.901568996517135 ], [ -79.7297594171594, 39.901570022917511 ], [ -79.729748458228087, 39.901585953175349 ], [ -79.729747957784937, 39.901586679033677 ], [ -79.729736915361144, 39.901602660080975 ], [ -79.729736426144783, 39.901603366579472 ], [ -79.729725309996383, 39.901619385570434 ], [ -79.729724873436282, 39.901620013482692 ], [ -79.72971367411094, 39.901636091103143 ], [ -79.729713299990479, 39.901636627315661 ], [ -79.729702027204411, 39.901652758006314 ], [ -79.72970170369598, 39.901653220281524 ], [ -79.729690360728725, 39.90166940613112 ], [ -79.729690082323202, 39.9016698029263 ], [ -79.729678672494032, 39.901686045233724 ], [ -79.72966696082635, 39.901702683511118 ], [ -79.72965522334249, 39.901719329291808 ], [ -79.729643460619698, 39.901735986234861 ], [ -79.729631668508191, 39.901752664514134 ], [ -79.729619848524322, 39.901769364358437 ], [ -79.729608003735876, 39.901786085374823 ], [ -79.729596131750782, 39.901802832435003 ], [ -79.729584236400598, 39.901819603327702 ], [ -79.72957231550312, 39.90183640191082 ], [ -79.729560375526205, 39.901853221109938 ], [ -79.729548405705657, 39.901870072189823 ], [ -79.729536468143507, 39.901886882718905 ], [ -79.729524445489417, 39.90190380493295 ], [ -79.729512449584533, 39.901920690113215 ], [ -79.729500404251226, 39.901937638822311 ], [ -79.729488375516965, 39.901954564879496 ], [ -79.729476311099532, 39.901971536585435 ], [ -79.729464256686072, 39.901988494540035 ], [ -79.729452169764457, 39.902005492556654 ], [ -79.729440102839732, 39.9020224630939 ], [ -79.729428021661647, 39.902039451227452 ], [ -79.729415940067625, 39.902056439817201 ], [ -79.72940385328009, 39.902073433639686 ], [ -79.729391760833707, 39.902090432859289 ], [ -79.729379687210738, 39.902107407514244 ], [ -79.729367595351036, 39.902124405257887 ], [ -79.729355496160068, 39.902141411222722 ], [ -79.729343427192262, 39.90215837459359 ], [ -79.729331336489693, 39.902175366053783 ], [ -79.729319283101248, 39.902192305738346 ], [ -79.72930717692671, 39.902209313916543 ], [ -79.729295132532286, 39.902226235626578 ], [ -79.72928305517992, 39.902243199068216 ], [ -79.729271036186248, 39.902260081255349 ], [ -79.729258975471637, 39.902277015990052 ], [ -79.729246988098694, 39.90229384837005 ], [ -79.729234946105009, 39.90231074930059 ], [ -79.729222997477223, 39.902327519304066 ], [ -79.729211069442329, 39.902344259787228 ], [ -79.729199086396235, 39.902361066471343 ], [ -79.729187144654176, 39.902377806911893 ], [ -79.729175233656591, 39.902394495191608 ], [ -79.729163324355397, 39.902411168844878 ], [ -79.729151442486014, 39.902427790371519 ], [ -79.729139557931262, 39.902444398016215 ], [ -79.729127694658217, 39.902460955954126 ], [ -79.729115831234381, 39.902477489923356 ], [ -79.729103965291571, 39.902493998853458 ], [ -79.729092091847306, 39.902510484895487 ], [ -79.729091806803993, 39.902510880196139 ], [ -79.729080202323431, 39.902526954372476 ], [ -79.729079869811983, 39.902527414323913 ], [ -79.729068287847397, 39.902543413236387 ], [ -79.729067901568257, 39.902543945979524 ], [ -79.729056338054349, 39.902559868631336 ], [ -79.729055890997728, 39.902560483087811 ], [ -79.729044340962659, 39.902576328944846 ], [ -79.729043817609508, 39.902577045416457 ], [ -79.72903228089875, 39.902592805514004 ], [ -79.729031761323512, 39.902593513800177 ], [ -79.729020229362476, 39.902609201088524 ], [ -79.729019483422917, 39.902610212762809 ], [ -79.729007933954321, 39.902625829613591 ], [ -79.72900715731565, 39.902626876499816 ], [ -79.728995591098993, 39.902642419074347 ], [ -79.72899470372046, 39.902643607329296 ], [ -79.728983110139737, 39.902659077321445 ], [ -79.7289820263629, 39.902660517314587 ], [ -79.728970382929006, 39.90267592202737 ], [ -79.728969301498068, 39.902677346790725 ], [ -79.728957614761171, 39.902692679270274 ], [ -79.728956232319319, 39.902694483347446 ], [ -79.728944466486027, 39.902709756404327 ], [ -79.728943071485944, 39.902711557661206 ], [ -79.728931231552892, 39.902726765047603 ], [ -79.728929492869412, 39.902728983738086 ], [ -79.728917539366989, 39.902744138558212 ], [ -79.728915764044885, 39.902746374644863 ], [ -79.72890369950052, 39.902761471507596 ], [ -79.728901534762883, 39.90276415914272 ], [ -79.728889315897831, 39.902779211240343 ], [ -79.728887094944398, 39.902781925613539 ], [ -79.72887472279443, 39.902796927674238 ], [ -79.728872260187941, 39.902799888148564 ], [ -79.728859711897698, 39.902814844469873 ], [ -79.728856789392168, 39.902818293110137 ], [ -79.728844016845372, 39.902833215549698 ], [ -79.728840908538729, 39.902836809431818 ], [ -79.728827890256937, 39.902851706107079 ], [ -79.728824455916666, 39.902855592042961 ], [ -79.728811177837116, 39.902870448808066 ], [ -79.728807447957436, 39.90287457268397 ], [ -79.728793867575831, 39.902889410358078 ], [ -79.728789776398045, 39.902893823633448 ], [ -79.728775878121141, 39.90290862682366 ], [ -79.728771476613417, 39.902913252588398 ], [ -79.728757216584967, 39.902928040726835 ], [ -79.728752426299991, 39.902932938396397 ], [ -79.728737788532499, 39.902947694172028 ], [ -79.728732665281328, 39.902952782890111 ], [ -79.728717612336055, 39.902967515624155 ], [ -79.72871213147431, 39.902972797803542 ], [ -79.728696634348324, 39.902987505362411 ], [ -79.728690800155405, 39.902992954409896 ], [ -79.728674830982257, 39.903007633317372 ], [ -79.728668646747124, 39.903013224612216 ], [ -79.728652179299104, 39.903027869520116 ], [ -79.728645653444019, 39.903033575064754 ], [ -79.728628663679913, 39.903048178742303 ], [ -79.728621807538048, 39.903053969794314 ], [ -79.728604274165747, 39.903068522981641 ], [ -79.728597101581101, 39.903074370786477 ], [ -79.728579006626347, 39.903088862078938 ], [ -79.728571471238766, 39.903094786594608 ], [ -79.728552807592692, 39.903109192628229 ], [ -79.728545111182058, 39.903115024605981 ], [ -79.728525855258027, 39.903129348769546 ], [ -79.72851794614337, 39.903135123470904 ], [ -79.728498114189378, 39.903149335491861 ], [ -79.728489732983675, 39.903155225833217 ], [ -79.728469297099593, 39.903169310804472 ], [ -79.728460797003819, 39.903175056256806 ], [ -79.728439777332909, 39.903188989195876 ], [ -79.728430955102453, 39.903194721264953 ], [ -79.728409348542726, 39.903208480854694 ], [ -79.728400532556208, 39.903213985020479 ], [ -79.728378384454132, 39.90322754073636 ], [ -79.728369174648236, 39.903233062977691 ], [ -79.728346479072499, 39.903246393277016 ], [ -79.728337308643475, 39.903251670996674 ], [ -79.728314123787513, 39.903264743769604 ], [ -79.728304588130072, 39.903270008088043 ], [ -79.728280918429093, 39.903282800423547 ], [ -79.728271438753808, 39.903287817285872 ], [ -79.728247352559322, 39.903300297424188 ], [ -79.728237531624359, 39.903305276353336 ], [ -79.728213041764079, 39.903317421953815 ], [ -79.728203294513975, 39.903322152069507 ], [ -79.728178478095529, 39.903333933452132 ], [ -79.728168512928661, 39.903338559583453 ], [ -79.72814340408425, 39.903349955088686 ], [ -79.728133417709401, 39.903354385807788 ], [ -79.728108082230122, 39.903365371864219 ], [ -79.728097895771086, 39.903369686797376 ], [ -79.728072345081586, 39.903380256496725 ], [ -79.728061944592028, 39.903384455830299 ], [ -79.728036262437669, 39.903394573424769 ], [ -79.728026000172719, 39.903398518962597 ], [ -79.728000216500206, 39.903408189879329 ], [ -79.727989650685558, 39.903412052685141 ], [ -79.72796383094493, 39.90342124967507 ], [ -79.727953449101207, 39.90342485358515 ], [ -79.727927617813805, 39.903433588460402 ], [ -79.727916951118161, 39.903437098630597 ], [ -79.727891167451943, 39.903445351485402 ], [ -79.727880627315187, 39.9034486329953 ], [ -79.727854916603007, 39.903456414524172 ], [ -79.727844385989826, 39.903459511770002 ], [ -79.727818779707135, 39.903466826003118 ], [ -79.727808293244806, 39.903469734116435 ], [ -79.727782818088414, 39.903476588366303 ], [ -79.72777240454667, 39.903479305854106 ], [ -79.727747082311581, 39.903485710086279 ], [ -79.72773677734196, 39.903488235243294 ], [ -79.727711624939928, 39.903494201946657 ], [ -79.727701466366142, 39.903496534344995 ], [ -79.727676495952281, 39.903502078203275 ], [ -79.727666522999712, 39.903504218899805 ], [ -79.727641742196198, 39.903509356447323 ], [ -79.727631994586034, 39.903511308131392 ], [ -79.727607406785907, 39.903516057404389 ], [ -79.727597744162409, 39.903517856691522 ], [ -79.727573358272053, 39.903522228957108 ], [ -79.727564407456185, 39.90352377688324 ], [ -79.727540214609178, 39.903527807441087 ], [ -79.727531318484168, 39.90352923390526 ], [ -79.727507293271643, 39.903532936487409 ], [ -79.727498816121255, 39.903534192865479 ], [ -79.727474962890483, 39.903537587647385 ], [ -79.727466847653744, 39.903538697105411 ], [ -79.72744314070674, 39.903541805568508 ], [ -79.72743550581481, 39.903542766673226 ], [ -79.727411957767814, 39.903545607919185 ], [ -79.727404698208034, 39.90354644791217 ], [ -79.727381266933975, 39.90354904337071 ], [ -79.727374507500102, 39.903549761126342 ], [ -79.727351204176927, 39.903552128974773 ], [ -79.727344850185958, 39.903552747353721 ], [ -79.727321631293606, 39.903554907609738 ], [ -79.727315770609707, 39.903555429788618 ], [ -79.727292646207928, 39.903557399135067 ], [ -79.727287198231934, 39.903557843213953 ], [ -79.727264124606279, 39.903559639859573 ], [ -79.727259142556548, 39.903560011205776 ], [ -79.727236130897893, 39.903561649881048 ], [ -79.727231558636163, 39.903561961538706 ], [ -79.727208579964923, 39.903563457837343 ], [ -79.727204419739977, 39.903563717223186 ], [ -79.727181472652788, 39.90356508447347 ], [ -79.727177826139723, 39.903565292910244 ], [ -79.727154859281328, 39.903566550105204 ], [ -79.727151275068053, 39.903566737781574 ], [ -79.727128308428476, 39.903567885777093 ], [ -79.727125382236679, 39.903568026370266 ], [ -79.727102382006322, 39.903569086869211 ], [ -79.727099470724923, 39.903569215492361 ], [ -79.727076445600332, 39.903570188401631 ], [ -79.727074129366088, 39.903570282723521 ], [ -79.727051047528448, 39.903571187306618 ], [ -79.72704871254443, 39.903571275210943 ], [ -79.727025584929095, 39.903572110195093 ], [ -79.72702366124976, 39.903572177201283 ], [ -79.72700046757295, 39.903572955614841 ], [ -79.726998766120545, 39.903573010806085 ], [ -79.726975498843601, 39.903573739400024 ], [ -79.726974004387515, 39.903573784723008 ], [ -79.726950657049812, 39.903574469752563 ], [ -79.726949345135949, 39.903574507109113 ], [ -79.726925912338928, 39.903575154064661 ], [ -79.726924764628919, 39.903575184882492 ], [ -79.72690124202677, 39.903575798686745 ], [ -79.726900241518379, 39.903575824133775 ], [ -79.726876625798099, 39.90357640918927 ], [ -79.726875756834133, 39.90357643021882 ], [ -79.726852045689483, 39.903576990453182 ], [ -79.726851293933436, 39.903577007842472 ], [ -79.726827486032917, 39.903577546750945 ], [ -79.726826838418987, 39.903577561133496 ], [ -79.726802933367679, 39.903578081818459 ], [ -79.726802259862694, 39.903578096189165 ], [ -79.726778268631548, 39.903578597437885 ], [ -79.726753825096978, 39.903579096640286 ], [ -79.726729232925749, 39.903579585866375 ], [ -79.726704606108243, 39.903580064938929 ], [ -79.726679941837403, 39.903580535150077 ], [ -79.726655242932793, 39.90358099846744 ], [ -79.726630502227863, 39.903581455871453 ], [ -79.726605723432755, 39.903581908934385 ], [ -79.726580900736607, 39.903582358240847 ], [ -79.726556039700455, 39.90358280502204 ], [ -79.726531141030847, 39.903583249165393 ], [ -79.726506211358682, 39.903583691667102 ], [ -79.726481255138793, 39.903584132626136 ], [ -79.726456307536509, 39.903584573658748 ], [ -79.726431227524614, 39.903585013765309 ], [ -79.72640621602558, 39.903585453251715 ], [ -79.726381093728065, 39.903585891894423 ], [ -79.726356033508708, 39.90358633022651 ], [ -79.726330864570585, 39.903586767936467 ], [ -79.726305744400477, 39.903587203562068 ], [ -79.726280621355571, 39.903587639406567 ], [ -79.726255477859681, 39.903588074534248 ], [ -79.72623032739854, 39.903588509581752 ], [ -79.726205176992451, 39.903588943746158 ], [ -79.726180010087546, 39.9035893776718 ], [ -79.726154866259421, 39.903589810565109 ], [ -79.726129696405962, 39.903590243124931 ], [ -79.726104572818741, 39.903590674569202 ], [ -79.726079414597478, 39.903591105628891 ], [ -79.726054324770971, 39.903591535562114 ], [ -79.72602919295538, 39.903591964704027 ], [ -79.72600410408117, 39.903592392777426 ], [ -79.725978979691433, 39.903592818849823 ], [ -79.725953960874804, 39.90359324388897 ], [ -79.725928879262199, 39.903593667033086 ], [ -79.725903922677048, 39.903594088578366 ], [ -79.725878890516967, 39.903594507838953 ], [ -79.725854010154634, 39.903594924511175 ], [ -79.725829133357294, 39.90359533909615 ], [ -79.72580427473261, 39.903595750488392 ], [ -79.725779449965714, 39.903596157832887 ], [ -79.725754699040209, 39.903596560200469 ], [ -79.725729965670922, 39.903596957082826 ], [ -79.725705305537275, 39.90359734699647 ], [ -79.725680771338119, 39.90359773057785 ], [ -79.725656099798556, 39.903598104676874 ], [ -79.725631553172263, 39.903598466353088 ], [ -79.725607039269562, 39.903598815165694 ], [ -79.725582549933151, 39.903599149026824 ], [ -79.725558079850217, 39.903599465591782 ], [ -79.725557461294599, 39.903599473337088 ], [ -79.725533616798828, 39.903599762188357 ], [ -79.725532897759692, 39.90359977055806 ], [ -79.725509148955126, 39.903600035744311 ], [ -79.72550831671748, 39.903600044580955 ], [ -79.725484662366156, 39.903600282769489 ], [ -79.725483702956964, 39.903600291823857 ], [ -79.725460140833647, 39.903600499295571 ], [ -79.725459038963535, 39.903600508197975 ], [ -79.725435565819524, 39.903600680806868 ], [ -79.725434304847909, 39.903600689031897 ], [ -79.72541091638054, 39.903600822161607 ], [ -79.725409478311079, 39.903600828984992 ], [ -79.725386169139284, 39.903600917502764 ], [ -79.725384529499934, 39.903600921958557 ], [ -79.725361293141219, 39.903600960009243 ], [ -79.725359437319057, 39.903600960779777 ], [ -79.725336266187611, 39.903600942076693 ], [ -79.725334140756374, 39.903600937385633 ], [ -79.725311038322488, 39.903600854053764 ], [ -79.725308529876969, 39.903600840860989 ], [ -79.725285449133253, 39.903600681334758 ], [ -79.725282928747262, 39.903600659730053 ], [ -79.725259892831673, 39.903600424017981 ], [ -79.725256751891791, 39.903600385378695 ], [ -79.725233727009098, 39.903600054477451 ], [ -79.725230560068823, 39.90360000235389 ], [ -79.72520755427729, 39.903599575686769 ], [ -79.725203704049719, 39.90359949450626 ], [ -79.725180681480552, 39.903598950630773 ], [ -79.725176771205398, 39.903598848169011 ], [ -79.725153737887339, 39.90359818519125 ], [ -79.725149278302453, 39.903598043698977 ], [ -79.725126208753551, 39.903597243811809 ], [ -79.725121327152593, 39.90359705880369 ], [ -79.725098204675504, 39.903596107854817 ], [ -79.725092903024233, 39.903595871214968 ], [ -79.725069698435505, 39.903594754018449 ], [ -79.725063914263288, 39.903594453357634 ], [ -79.725040636430549, 39.903593154060928 ], [ -79.725034434869315, 39.903592782358452 ], [ -79.725011039137442, 39.903591283619853 ], [ -79.725004334242769, 39.903590824155764 ], [ -79.724980829747338, 39.903589108384715 ], [ -79.724973909590958, 39.90358857122645 ], [ -79.724950262185956, 39.903586626167858 ], [ -79.72494246466276, 39.903585944009549 ], [ -79.724918664668024, 39.903583737192854 ], [ -79.724910650075159, 39.903582950749623 ], [ -79.724886678614396, 39.903580468770222 ], [ -79.724878257190767, 39.903579548746926 ], [ -79.724854099726997, 39.903576771393062 ], [ -79.724845291045312, 39.903575705724371 ], [ -79.724820936206072, 39.90357261255329 ], [ -79.724811774092259, 39.903571391212068 ], [ -79.724787212723399, 39.903567961957215 ], [ -79.724777727467512, 39.90356657523526 ], [ -79.724752953510787, 39.903562789872289 ], [ -79.724743181700546, 39.903561229907339 ], [ -79.724718192462092, 39.903557069029333 ], [ -79.724708172633697, 39.903555329571539 ], [ -79.724682969221107, 39.90355077469826 ], [ -79.724672740825113, 39.903548851180588 ], [ -79.724647328547235, 39.90354388508517 ], [ -79.724636930930984, 39.903541774609124 ], [ -79.724611319641838, 39.903536381654483 ], [ -79.724600791103242, 39.903534082895682 ], [ -79.724574995472025, 39.903528249372265 ], [ -79.724564372434571, 39.903525762417871 ], [ -79.724538412122641, 39.903519476872383 ], [ -79.724527723979278, 39.903516801847239 ], [ -79.724501623702253, 39.903510055208699 ], [ -79.724490906685162, 39.90350719560616 ], [ -79.724464696167288, 39.903499981855347 ], [ -79.724453964655027, 39.903496936809702 ], [ -79.724427677646375, 39.903489252217007 ], [ -79.72441673653023, 39.903485956523618 ], [ -79.724390416525068, 39.903477792642882 ], [ -79.724379965174137, 39.903474460014394 ], [ -79.724353645234842, 39.903465836725154 ], [ -79.724342909422546, 39.903462221046027 ], [ -79.724316630437286, 39.903453127972945 ], [ -79.724306198452595, 39.90344942300392 ], [ -79.72428002915693, 39.903439887646492 ], [ -79.724269456756232, 39.903435934725238 ], [ -79.724243427880538, 39.903425952583945 ], [ -79.724233165045177, 39.903421919085375 ], [ -79.72420734766024, 39.903411524143692 ], [ -79.724197090777153, 39.903407293770385 ], [ -79.724171527653596, 39.903396497019962 ], [ -79.724161382172554, 39.903392110324376 ], [ -79.724136123743193, 39.903380933098973 ], [ -79.724126190173493, 39.903376436501937 ], [ -79.724101271496139, 39.90336490071968 ], [ -79.724091261163707, 39.903360160450518 ], [ -79.72406675733184, 39.903348293982241 ], [ -79.724057092867511, 39.90334351110139 ], [ -79.724033015570186, 39.903331336364431 ], [ -79.724023287105354, 39.903326309005493 ], [ -79.723999703030273, 39.903313855806211 ], [ -79.723990347344213, 39.903308811531538 ], [ -79.723967258973076, 39.903296102479992 ], [ -79.723957944742921, 39.903290867808167 ], [ -79.72393541584907, 39.90327794228353 ], [ -79.723926230453742, 39.903272562978742 ], [ -79.723904250389538, 39.903259425000293 ], [ -79.723895360786358, 39.903254004301147 ], [ -79.72387395168127, 39.903240687336883 ], [ -79.72386528028747, 39.903235186682899 ], [ -79.723844451335296, 39.903221713207337 ], [ -79.72383602153738, 39.903216154355853 ], [ -79.723815775902864, 39.903202545227714 ], [ -79.723807603639258, 39.903196947257584 ], [ -79.723787939173491, 39.903183221330607 ], [ -79.723780044133861, 39.903177607916732 ], [ -79.723760953547455, 39.903163782015262 ], [ -79.723753354862879, 39.903158178794669 ], [ -79.72373482618363, 39.903144267653673 ], [ -79.723727541804124, 39.903138701772747 ], [ -79.723709558893603, 39.903124718033212 ], [ -79.723702604977646, 39.903119217581128 ], [ -79.723685148085622, 39.903105171834035 ], [ -79.723678538438065, 39.903099765186383 ], [ -79.723661584775428, 39.903085666057557 ], [ -79.723655330373091, 39.90308038116693 ], [ -79.723638854685234, 39.903066235435631 ], [ -79.723632961103803, 39.90306109714875 ], [ -79.723616936225085, 39.903046909721979 ], [ -79.723611410543995, 39.903041945294312 ], [ -79.723595807941052, 39.90302771973856 ], [ -79.723590647346313, 39.903022948248704 ], [ -79.723575437049433, 39.903008685953147 ], [ -79.723570508102654, 39.903004000595352 ], [ -79.723555665118653, 39.902989696393703 ], [ -79.723551365031796, 39.902985501591125 ], [ -79.723536848930777, 39.902971166806388 ], [ -79.723532750206346, 39.90296707099769 ], [ -79.723518529009056, 39.902952689886284 ], [ -79.72351479678683, 39.902948873867643 ], [ -79.723500856294109, 39.902934461928474 ], [ -79.723497425888326, 39.902930878674077 ], [ -79.723483723018177, 39.90291641611033 ], [ -79.723480621770562, 39.902913111612222 ], [ -79.723467144096148, 39.902898612823201 ], [ -79.723464333697606, 39.902895562818678 ], [ -79.723451056747464, 39.902881026387355 ], [ -79.723448504228202, 39.902878208952373 ], [ -79.723435389540597, 39.902863614825122 ], [ -79.723433190446769, 39.902861150207414 ], [ -79.723420218864632, 39.9028465084819 ], [ -79.723418059470404, 39.902844053736551 ], [ -79.723405218888203, 39.902829352884304 ], [ -79.72340347417331, 39.902827343783152 ], [ -79.723390735220292, 39.90281258888546 ], [ -79.723389002244204, 39.902810569918444 ], [ -79.723376356192873, 39.902795750485446 ], [ -79.723374992524995, 39.902794145012969 ], [ -79.723362413110863, 39.902779265933773 ], [ -79.723361035375476, 39.902777628585326 ], [ -79.723348517163387, 39.902762680648188 ], [ -79.723347394963255, 39.90276133539659 ], [ -79.723334924758092, 39.902746328054256 ], [ -79.723333934712343, 39.902745132435271 ], [ -79.723321494649767, 39.902730057007169 ], [ -79.723320610405707, 39.902728982088199 ], [ -79.723308182828887, 39.902713827353068 ], [ -79.72330743264564, 39.902712910102743 ], [ -79.723295021724866, 39.902697694664418 ], [ -79.723294339825628, 39.902696856633412 ], [ -79.723281924900917, 39.902681561807718 ], [ -79.723281358287039, 39.902680862332019 ], [ -79.723268945305676, 39.902665507421155 ], [ -79.72326842371433, 39.902664860993418 ], [ -79.723255995141557, 39.902649428717652 ], [ -79.723255573874184, 39.902648904839545 ], [ -79.723243137253149, 39.9026334152827 ], [ -79.72324274123865, 39.902632921343162 ], [ -79.723230281895638, 39.902617358663747 ], [ -79.723229974556389, 39.90261697434223 ], [ -79.723217501443941, 39.902601359442528 ], [ -79.723204703678405, 39.902585303419926 ], [ -79.723191968756041, 39.902569300193143 ], [ -79.723179202992768, 39.902553231561861 ], [ -79.723166433986009, 39.902537134609126 ], [ -79.723153722528707, 39.902521094336663 ], [ -79.723140922265003, 39.902504916924237 ], [ -79.723128272857082, 39.902488924921251 ], [ -79.723115515058964, 39.902472779505921 ], [ -79.723102826323867, 39.902456713379571 ], [ -79.723090113297431, 39.902440605640606 ], [ -79.723077408900608, 39.902424498467418 ], [ -79.723064713240404, 39.902408391937961 ], [ -79.723052049364895, 39.902392318263388 ], [ -79.72303934411039, 39.90237617623697 ], [ -79.723026706173741, 39.902360109825672 ], [ -79.723014037440279, 39.902343986077675 ], [ -79.723001431383807, 39.902327928016852 ], [ -79.722988804344936, 39.902311820838456 ], [ -79.722976222787523, 39.902295749194202 ], [ -79.722975747289865, 39.902295140703792 ], [ -79.72296340396997, 39.902279316825982 ], [ -79.722962975222075, 39.902278766291417 ], [ -79.72295067528114, 39.902262946972094 ], [ -79.72293841015609, 39.902247168011662 ], [ -79.722938057113168, 39.902246713218247 ], [ -79.722925884438837, 39.902231011285608 ], [ -79.722925439490027, 39.902230436361094 ], [ -79.722913341041561, 39.902214777335892 ], [ -79.722912861341868, 39.902214155323797 ], [ -79.722900826588329, 39.902198521630233 ], [ -79.722900242623169, 39.902197761333731 ], [ -79.722888290143757, 39.902182164847105 ], [ -79.722887651646332, 39.902181329635795 ], [ -79.722875770619467, 39.902165749869035 ], [ -79.722875013147487, 39.902164753662518 ], [ -79.72286322204846, 39.902149200641553 ], [ -79.722862388223135, 39.902148097196616 ], [ -79.722850676127834, 39.902132547297271 ], [ -79.722849706722627, 39.902131255311133 ], [ -79.722838092211632, 39.902115716559301 ], [ -79.72283702353046, 39.90211428070215 ], [ -79.722825495818014, 39.902098726130561 ], [ -79.722824268637666, 39.902097062068059 ], [ -79.72281284657825, 39.902081496770457 ], [ -79.722811450639199, 39.902079583599601 ], [ -79.722800121404035, 39.902063967608861 ], [ -79.722798643173022, 39.90206191752678 ], [ -79.72278743104124, 39.902046272159282 ], [ -79.722785724476807, 39.902043873636558 ], [ -79.722774615006898, 39.902028146480724 ], [ -79.722772808822612, 39.902025569625934 ], [ -79.722761827397846, 39.902009779993456 ], [ -79.722759778689763, 39.902006807629185 ], [ -79.722748918565131, 39.901990908066132 ], [ -79.722746781145077, 39.901987748545224 ], [ -79.722736048872363, 39.901971729846935 ], [ -79.722733729665407, 39.901968230891335 ], [ -79.72272314575568, 39.901952089609878 ], [ -79.722720610171066, 39.90194817551771 ], [ -79.722710159937137, 39.901931845802117 ], [ -79.722707511599737, 39.90192765285996 ], [ -79.722697229478371, 39.901911157276771 ], [ -79.72269438627913, 39.901906528670963 ], [ -79.722684265144693, 39.901889806616502 ], [ -79.722681333890577, 39.901884886613438 ], [ -79.722671402794603, 39.90186794979774 ], [ -79.722668324259132, 39.901862607398542 ], [ -79.722658578676302, 39.901845394783393 ], [ -79.722655443661807, 39.901839753122616 ], [ -79.722645914667012, 39.90182227683092 ], [ -79.722642694468604, 39.901816249114461 ], [ -79.72263338022394, 39.901798449263929 ], [ -79.722630148710081, 39.901792136970741 ], [ -79.722621081724739, 39.901774027271181 ], [ -79.722617820698858, 39.901767357178549 ], [ -79.722609008145326, 39.901748890163738 ], [ -79.722605795007908, 39.901741983682548 ], [ -79.722597265743019, 39.901723169187505 ], [ -79.722594130821221, 39.901716064268179 ], [ -79.722585889043046, 39.901696861558484 ], [ -79.722582806493335, 39.901689466022354 ], [ -79.722574876808224, 39.901669862065155 ], [ -79.722571939395493, 39.901662371563802 ], [ -79.722564346054753, 39.901642382453858 ], [ -79.722561519502008, 39.901634688896387 ], [ -79.722554279324186, 39.901614292478932 ], [ -79.722551632320389, 39.901606566762034 ], [ -79.722544769143653, 39.901585790003317 ], [ -79.722542276926589, 39.901577952122757 ], [ -79.72253580698144, 39.90155678542046 ], [ -79.722533514848124, 39.901548976003639 ], [ -79.722527460015641, 39.901527459215409 ], [ -79.722525349360978, 39.901519622921235 ], [ -79.722519723528393, 39.901497760673699 ], [ -79.722517818792426, 39.901490002754507 ], [ -79.722512640250727, 39.901467848676077 ], [ -79.722510927748246, 39.901460139129398 ], [ -79.722506206078748, 39.901437712483009 ], [ -79.722504691174919, 39.901430106337131 ], [ -79.722500435962132, 39.901407451522971 ], [ -79.72249911716284, 39.901399990507606 ], [ -79.722495337198552, 39.901377180388572 ], [ -79.722494201717339, 39.901369850439941 ], [ -79.722490897174012, 39.901346922356403 ], [ -79.722489941436265, 39.901339770959098 ], [ -79.722487112827039, 39.901316807323269 ], [ -79.722486324094774, 39.901309826950389 ], [ -79.72248396391538, 39.901286872861419 ], [ -79.722483327574992, 39.901280020262476 ], [ -79.722481433295684, 39.901257173252368 ], [ -79.722480956277778, 39.901250683831663 ], [ -79.722479500838475, 39.901227981692777 ], [ -79.722479152182288, 39.901221634721431 ], [ -79.722478123514179, 39.901199155395211 ], [ -79.722477899954441, 39.901193121254543 ], [ -79.722477270742218, 39.901170919768255 ], [ -79.722477153205432, 39.901164972532214 ], [ -79.72247690886222, 39.901143131334557 ], [ -79.72247689102511, 39.901137613930615 ], [ -79.722476992271311, 39.901116169140359 ], [ -79.722477059827412, 39.901110768183479 ], [ -79.722477485586282, 39.901089790703615 ], [ -79.722477620660882, 39.901084861950835 ], [ -79.72247832776965, 39.901064375847248 ], [ -79.722478525754198, 39.901059595604423 ], [ -79.72247948915583, 39.901039657797256 ], [ -79.722479721013912, 39.901035401305549 ], [ -79.722480895927276, 39.901016021410356 ], [ -79.72248116571896, 39.901011964155551 ], [ -79.722482524921901, 39.900993182739597 ], [ -79.722482801153845, 39.900989619931401 ], [ -79.722484304504377, 39.900971440919193 ], [ -79.722484586655526, 39.900968211997096 ], [ -79.722486203468321, 39.900950651333645 ], [ -79.722486448783286, 39.90094809040545 ], [ -79.722488136737184, 39.900931128476657 ], [ -79.722488357726732, 39.900928975557818 ], [ -79.722490087534382, 39.900912622662467 ], [ -79.722490263465588, 39.900910995915979 ], [ -79.722492006809944, 39.900895221763783 ], [ -79.722492123550481, 39.900894179789525 ], [ -79.722493850321555, 39.900878973568055 ], [ -79.722495569811215, 39.900863993672907 ], [ -79.722497121027644, 39.90085040569361 ], [ -79.722498505980724, 39.900837989292981 ], [ -79.722499710022618, 39.90082672461768 ], [ -79.72250072620993, 39.900816580353251 ], [ -79.722501555851281, 39.900807503017745 ], [ -79.722502207037564, 39.900799429416089 ], [ -79.722502692782001, 39.900792279635318 ], [ -79.722503032300068, 39.900785942592464 ], [ -79.722503244303141, 39.900780294833773 ], [ -79.722503348503622, 39.900775187667691 ], [ -79.722503358355382, 39.90077045608821 ], [ -79.722503284411289, 39.900765993367045 ], [ -79.722503125431516, 39.900761586927395 ], [ -79.722502871102648, 39.900756964580864 ], [ -79.722502506996349, 39.900752020228524 ], [ -79.722502011749299, 39.900746587808889 ], [ -79.722501357433131, 39.90074052222878 ], [ -79.722500518489582, 39.900733685685765 ], [ -79.722499467302455, 39.900725977968023 ], [ -79.722498185667902, 39.900717297181771 ], [ -79.722496656199951, 39.900707589305263 ], [ -79.722494876943017, 39.900696790445807 ], [ -79.722492843678268, 39.900684872706087 ], [ -79.722490575207601, 39.900671813051552 ], [ -79.722488104231488, 39.900657735839467 ], [ -79.72248545088155, 39.900642552172364 ], [ -79.722485339437995, 39.900641910932599 ], [ -79.722482667435457, 39.900626451940809 ], [ -79.722482442115762, 39.900625133462782 ], [ -79.722479734484097, 39.900609106641596 ], [ -79.722479401300532, 39.900607099242507 ], [ -79.722476692066323, 39.900590479542345 ], [ -79.72247633588519, 39.900588249568436 ], [ -79.722473644953951, 39.900571048225935 ], [ -79.722473194264907, 39.900568084627558 ], [ -79.722470564357721, 39.900550280817136 ], [ -79.722470116923617, 39.900547154639888 ], [ -79.722467570406153, 39.900528773216791 ], [ -79.722467050941319, 39.900524861802701 ], [ -79.722464639693371, 39.900505887911081 ], [ -79.722464163187496, 39.900501961029235 ], [ -79.722461906469476, 39.900482441184081 ], [ -79.722461414384199, 39.900477928023193 ], [ -79.722459359563658, 39.900457873339526 ], [ -79.722458919892446, 39.90045328324755 ], [ -79.722457089794531, 39.900432747619298 ], [ -79.722456670625377, 39.900427615309063 ], [ -79.722455112478812, 39.900406625187891 ], [ -79.722454767278904, 39.900401453226188 ], [ -79.722453500466344, 39.900380076399991 ], [ -79.722453210402122, 39.90037439425442 ], [ -79.722452279752815, 39.900352670302645 ], [ -79.722452086287873, 39.900347114128628 ], [ -79.722451497343286, 39.900325140634479 ], [ -79.722451386953082, 39.900318979348484 ], [ -79.722451186408591, 39.900296777231169 ], [ -79.722451186450328, 39.900290507072391 ], [ -79.722451388662122, 39.900268153300892 ], [ -79.722451508210114, 39.900261659509255 ], [ -79.722452130801841, 39.900239244039405 ], [ -79.72245238186467, 39.900232540061701 ], [ -79.722453438866665, 39.900210112080622 ], [ -79.722453834098459, 39.900203193738562 ], [ -79.722455334745575, 39.900180840813924 ], [ -79.72245588513249, 39.900173732757814 ], [ -79.722457835856517, 39.900151499319954 ], [ -79.72245855502787, 39.900144187924205 ], [ -79.722460956664733, 39.900122154751813 ], [ -79.722461853363697, 39.900114676741602 ], [ -79.722464705377064, 39.900092878812458 ], [ -79.722465796259286, 39.900085201696427 ], [ -79.722469091260152, 39.900063718123796 ], [ -79.722470642134795, 39.900054435403391 ], [ -79.722474479607271, 39.900033211138293 ], [ -79.722475785782507, 39.900026371670442 ], [ -79.72247996790621, 39.900005582603541 ], [ -79.722481703532452, 39.89999744775406 ], [ -79.722486305915297, 39.899977045414346 ], [ -79.722488284738873, 39.899968736200329 ], [ -79.722493292807727, 39.899948764510391 ], [ -79.722495467895286, 39.899940506223444 ], [ -79.722500860120121, 39.899920973030092 ], [ -79.72250334359272, 39.899912389590938 ], [ -79.722509127053257, 39.899893281423289 ], [ -79.722511840125918, 39.899884699184412 ], [ -79.72251799031018, 39.899866042347796 ], [ -79.722520928879419, 39.899857481829763 ], [ -79.722527436004341, 39.899839252714877 ], [ -79.722530651917978, 39.899830584056787 ], [ -79.72253750319878, 39.899812792245058 ], [ -79.722540932555916, 39.899804202066917 ], [ -79.722548121447758, 39.899786814210749 ], [ -79.72255183482828, 39.899778138005573 ], [ -79.722559351943275, 39.899761155788013 ], [ -79.722563259155137, 39.899752611220656 ], [ -79.722571102487564, 39.899735994221267 ], [ -79.722575359691646, 39.899727257818761 ], [ -79.722583534941123, 39.899710995220907 ], [ -79.722587858012048, 39.899702644114491 ], [ -79.722596350212882, 39.899686703681198 ], [ -79.722601078524605, 39.899678084407604 ], [ -79.722609906805587, 39.899662446460447 ], [ -79.722614671288554, 39.899654232281968 ], [ -79.722623826606849, 39.899638862237431 ], [ -79.722629008904676, 39.899630395440695 ], [ -79.722638515895866, 39.899615272520023 ], [ -79.722643709097042, 39.899607217677186 ], [ -79.722653564796616, 39.899592306782388 ], [ -79.722659131796831, 39.899584094401924 ], [ -79.722669356396167, 39.899569382060648 ], [ -79.722674955417446, 39.899561514910644 ], [ -79.722685558691282, 39.899546962142175 ], [ -79.722691552947168, 39.899538929887811 ], [ -79.722702572404216, 39.89952450930376 ], [ -79.722708595205191, 39.899516804628483 ], [ -79.722720034681075, 39.899502495970111 ], [ -79.722726514133086, 39.899494576914861 ], [ -79.722738413738213, 39.89948036313875 ], [ -79.7227448415711, 39.899472851092135 ], [ -79.722757210726954, 39.899458705161983 ], [ -79.722764101136818, 39.899450998995718 ], [ -79.722776982647403, 39.899436908099787 ], [ -79.722783797706242, 39.899429609090198 ], [ -79.722797202736317, 39.899415550364971 ], [ -79.722804474490914, 39.899408087319962 ], [ -79.722818446444464, 39.89939405307004 ], [ -79.72282569644976, 39.899386920465012 ], [ -79.722840244005397, 39.899372901291251 ], [ -79.722847742319374, 39.899365823723507 ], [ -79.722862910826265, 39.899351799183435 ], [ -79.722870467377703, 39.899344952604864 ], [ -79.722886259935422, 39.899330929790715 ], [ -79.722894017060469, 39.899324179638022 ], [ -79.722910473692707, 39.899310144867087 ], [ -79.722918261251493, 39.899303633214522 ], [ -79.722935378214089, 39.899289600038799 ], [ -79.722943310631706, 39.899283223194381 ], [ -79.722961119003926, 39.899269185278811 ], [ -79.722969175434656, 39.899262957381019 ], [ -79.722987659457303, 39.899248944859416 ], [ -79.722995526477902, 39.899243091537286 ], [ -79.723014696989452, 39.89922909266938 ], [ -79.723022724617067, 39.8992233397882 ], [ -79.723042584535733, 39.899209372774223 ], [ -79.723050551851941, 39.899203871666693 ], [ -79.723071060741191, 39.899189969702384 ], [ -79.723077845177059, 39.899185441580862 ], [ -79.723099015295546, 39.899171529789477 ], [ -79.723108332896956, 39.899165534425279 ], [ -79.723130078058333, 39.899151835347425 ], [ -79.723137890553332, 39.899146999096523 ], [ -79.723160217397023, 39.899133418839597 ], [ -79.723167916294216, 39.899128815725661 ], [ -79.723190741981753, 39.899115401743039 ], [ -79.723198353758576, 39.899111003544803 ], [ -79.723221640242627, 39.899097774982828 ], [ -79.723229120148687, 39.899093595693948 ], [ -79.723252778398503, 39.899080595521099 ], [ -79.723260133879833, 39.899076619037331 ], [ -79.72328411178664, 39.89906386694188 ], [ -79.723291310113069, 39.899060099306418 ], [ -79.723315506738203, 39.899047636432577 ], [ -79.723322545505184, 39.899044067271497 ], [ -79.723346899491631, 39.899031910912768 ], [ -79.723353757700352, 39.899028539574495 ], [ -79.723378161031476, 39.899016726692174 ], [ -79.723384821579572, 39.899013550274482 ], [ -79.723409187697627, 39.899002103279877 ], [ -79.723415648535237, 39.898999111876499 ], [ -79.723439913345885, 39.898988040524785 ], [ -79.72344600224956, 39.898985300401542 ], [ -79.723470078065219, 39.898974615306969 ], [ -79.723476201707513, 39.89897193528185 ], [ -79.723499998115287, 39.898961666275255 ], [ -79.723505550622193, 39.898959300568301 ], [ -79.723529007149665, 39.898949434310047 ], [ -79.723534547968427, 39.898947133474493 ], [ -79.723557585393436, 39.898937690065772 ], [ -79.723562494299955, 39.898935700783703 ], [ -79.723585067374501, 39.898926658326154 ], [ -79.723589905820759, 39.898924742088312 ], [ -79.723611950291598, 39.898916111153696 ], [ -79.723616353355496, 39.898914405198866 ], [ -79.723637828512111, 39.898906171883802 ], [ -79.723641483042542, 39.898904782999786 ], [ -79.723662370515598, 39.898896914428249 ], [ -79.723665847210995, 39.898895615661317 ], [ -79.723686107960503, 39.89888811057611 ], [ -79.7236887311619, 39.898887145054836 ], [ -79.723708365073563, 39.8988799645334 ], [ -79.723710730578077, 39.898879104409403 ], [ -79.72372971482865, 39.898872241479076 ], [ -79.723731117805485, 39.898871736039204 ], [ -79.723749468998761, 39.898865147595615 ], [ -79.723750526370878, 39.898864768965971 ], [ -79.723768235922122, 39.898858443965096 ], [ -79.723785100260912, 39.898852425169892 ], [ -79.723800589089066, 39.89884687689127 ], [ -79.723814701973851, 39.898841790165847 ], [ -79.723827454190015, 39.898837140443334 ], [ -79.723838879002997, 39.898832915332044 ], [ -79.723849047666008, 39.89882908171662 ], [ -79.723858029131122, 39.898825621664471 ], [ -79.723865945054243, 39.898822492080711 ], [ -79.723872920405896, 39.898819656770819 ], [ -79.723879120049816, 39.898817058030232 ], [ -79.723884718106703, 39.898814635691117 ], [ -79.723889907957641, 39.898812314102194 ], [ -79.723894813202833, 39.898810045542895 ], [ -79.723899737947292, 39.898807689744913 ], [ -79.723904915070037, 39.898805133160764 ], [ -79.723910455016309, 39.898802311737697 ], [ -79.723916531115691, 39.898799127848037 ], [ -79.723923295129282, 39.898795488801547 ], [ -79.723930871710166, 39.898791316192963 ], [ -79.723939371729912, 39.898786537978957 ], [ -79.723948875293658, 39.898781102946202 ], [ -79.72395944698215, 39.898774972035532 ], [ -79.723971144311903, 39.89876811588136 ], [ -79.723984005092206, 39.898760522350486 ], [ -79.723998058779955, 39.898752190454601 ], [ -79.724013098208047, 39.89874326552102 ], [ -79.724029270606636, 39.898733687336268 ], [ -79.724030358094836, 39.898733044844747 ], [ -79.724046691252482, 39.898723418560294 ], [ -79.724048378773091, 39.898722427719363 ], [ -79.72406536160571, 39.898712493593329 ], [ -79.724067623241794, 39.898711177292967 ], [ -79.724085278448825, 39.898700953434414 ], [ -79.724087948576809, 39.898699416361374 ], [ -79.724106306069444, 39.89868891146304 ], [ -79.724109695759097, 39.898686986300369 ], [ -79.724128791236623, 39.898676222646493 ], [ -79.724132548681538, 39.898674122260012 ], [ -79.724152381038294, 39.898663128432219 ], [ -79.72415668288518, 39.898660766405307 ], [ -79.724177269342832, 39.898649570637716 ], [ -79.72418180871793, 39.898647126670838 ], [ -79.724203119306267, 39.898635768549433 ], [ -79.724208250273904, 39.898633064803327 ], [ -79.724230298520453, 39.898621578619121 ], [ -79.724235625028456, 39.898618836379164 ], [ -79.724258361895522, 39.898607269098044 ], [ -79.724264241766022, 39.898604316630461 ], [ -79.724287664103912, 39.898592709251751 ], [ -79.724293716617339, 39.898589750068673 ], [ -79.724317757956356, 39.898578154475892 ], [ -79.724324334834492, 39.89857502873889 ], [ -79.724348976767729, 39.898563489872302 ], [ -79.724355705112544, 39.898560386657977 ], [ -79.724380865067133, 39.898548958373027 ], [ -79.724388003165103, 39.898545768150534 ], [ -79.724413635589514, 39.89853449777366 ], [ -79.724420998246799, 39.898531314540101 ], [ -79.72444702424049, 39.898520251826397 ], [ -79.724454870396599, 39.898516976625984 ], [ -79.724481263189332, 39.898506159443592 ], [ -79.724489330828689, 39.898502914697005 ], [ -79.724515985065921, 39.898492397094905 ], [ -79.724524329456543, 39.898489168980191 ], [ -79.724551199762075, 39.898478980064212 ], [ -79.724559836100894, 39.898475772752434 ], [ -79.724586832126093, 39.898465956434059 ], [ -79.724595710189874, 39.898462797846392 ], [ -79.724622790959813, 39.898453374055912 ], [ -79.724631933078797, 39.8984502648931 ], [ -79.72465901428113, 39.898441267018136 ], [ -79.724668375456673, 39.89843823072809 ], [ -79.724695403430545, 39.898429676355157 ], [ -79.724704920468824, 39.898426739062657 ], [ -79.724731869001076, 39.898418632279636 ], [ -79.724741582036003, 39.898415786724847 ], [ -79.724768382788966, 39.898408144402524 ], [ -79.724778163437932, 39.898405431323532 ], [ -79.724804803907119, 39.89839824688638 ], [ -79.724814722607363, 39.898395648599383 ], [ -79.72484114759942, 39.89838892918835 ], [ -79.724851026134999, 39.898386491886811 ], [ -79.724877237451082, 39.89838022176238 ], [ -79.724887176474596, 39.898377918506263 ], [ -79.724913131969373, 39.89837209661718 ], [ -79.724922907702364, 39.898369974662636 ], [ -79.724948622582332, 39.898364578149902 ], [ -79.724958371447286, 39.898362601637281 ], [ -79.724983815226906, 39.898357623348602 ], [ -79.724993325816868, 39.898355827687219 ], [ -79.725018513244876, 39.898351244010172 ], [ -79.725027694906643, 39.898349633124951 ], [ -79.725052627206495, 39.898345421234943 ], [ -79.725061724177209, 39.898343942745804 ], [ -79.725086416363098, 39.898340087326027 ], [ -79.72509505708517, 39.898338790255281 ], [ -79.725119543518986, 39.89833526173171 ], [ -79.725127865741669, 39.898334110398878 ], [ -79.725152113954906, 39.898330895023896 ], [ -79.725159967799939, 39.89832989593598 ], [ -79.725184044351479, 39.898326962698583 ], [ -79.725191539521703, 39.898326087888456 ], [ -79.725215414431219, 39.898323423127955 ], [ -79.72522236830234, 39.898322679786737 ], [ -79.725246110821956, 39.898320253622195 ], [ -79.725252697855325, 39.898319609810791 ], [ -79.725276279531641, 39.89831740967962 ], [ -79.725282285398436, 39.898316873596315 ], [ -79.725305776393512, 39.898314871543924 ], [ -79.725311433749482, 39.898314410835312 ], [ -79.725334804391807, 39.898312596147797 ], [ -79.725339859767459, 39.89831222068355 ], [ -79.725363165737491, 39.89831056840103 ], [ -79.725367784016811, 39.898310255204379 ], [ -79.725391042438204, 39.898308749445114 ], [ -79.725395376078055, 39.898308481377505 ], [ -79.725418570208788, 39.898307113478403 ], [ -79.725422355665742, 39.89830689974405 ], [ -79.725445551908791, 39.898305648328851 ], [ -79.725449108538399, 39.898305464841911 ], [ -79.725472287975407, 39.898304323668327 ], [ -79.725475304996365, 39.898304181164178 ], [ -79.725498505115979, 39.898303131700459 ], [ -79.725501366416211, 39.898303007687687 ], [ -79.72552457918988, 39.898302045563121 ], [ -79.725527037728583, 39.898301947659071 ], [ -79.725550287186053, 39.898301059613907 ], [ -79.725552454180516, 39.898300979946356 ], [ -79.725575752306483, 39.898300156776529 ], [ -79.725577664236596, 39.898300091639115 ], [ -79.725601020767243, 39.898299325403769 ], [ -79.725602696216583, 39.898299272292604 ], [ -79.725626119582358, 39.898298555692328 ], [ -79.725627586255811, 39.898298512241816 ], [ -79.72565108361124, 39.898297838875507 ], [ -79.725652362939073, 39.898297803293794 ], [ -79.725675940187074, 39.898297167447708 ], [ -79.7256770520559, 39.898297138277798 ], [ -79.725700713883313, 39.898296534865537 ], [ -79.72570167660092, 39.898296510926166 ], [ -79.725725426520341, 39.898295935431307 ], [ -79.725726256827542, 39.898295915766461 ], [ -79.725750097224804, 39.898295364189025 ], [ -79.725750810344095, 39.898295348025471 ], [ -79.725774644462419, 39.898294819008754 ], [ -79.725798642490275, 39.898294280140199 ], [ -79.725799966337561, 39.898294251569297 ], [ -79.725824071501492, 39.898293752379821 ], [ -79.725824705468511, 39.898293739516042 ], [ -79.7258488958811, 39.898293258780726 ], [ -79.725873521404239, 39.898292780084461 ], [ -79.725898184486454, 39.898292310204624 ], [ -79.725922882239345, 39.898291847177013 ], [ -79.725947621843346, 39.898291390027303 ], [ -79.725972399534726, 39.898290937185422 ], [ -79.725997221143359, 39.898290488071957 ], [ -79.726022081061913, 39.898290041457017 ], [ -79.726046978587931, 39.898289597459225 ], [ -79.726071907047512, 39.898289155082885 ], [ -79.726096862836741, 39.898288714216434 ], [ -79.726121822834543, 39.898288273095488 ], [ -79.726146886060775, 39.898287833281344 ], [ -79.726171897031819, 39.898287393847639 ], [ -79.726197017731536, 39.898286955256857 ], [ -79.726222076436827, 39.898286516967588 ], [ -79.726247243667501, 39.898286079287551 ], [ -79.726272362148237, 39.898285643674441 ], [ -79.726297483626695, 39.898285207837688 ], [ -79.726322625162979, 39.898284772707214 ], [ -79.726347774036213, 39.89828433764761 ], [ -79.72637292234279, 39.898283903462122 ], [ -79.726398087518817, 39.898283469505422 ], [ -79.726423229111049, 39.898283036571435 ], [ -79.726448397092696, 39.898282603960318 ], [ -79.72647351830652, 39.898282172454522 ], [ -79.726498674373772, 39.898281741324517 ], [ -79.726523761816992, 39.898281311306022 ], [ -79.726548891456602, 39.898280882068306 ], [ -79.726573977959461, 39.898280453893527 ], [ -79.726599100081785, 39.898280027713156 ], [ -79.72662411625835, 39.898279602558702 ], [ -79.726649195555112, 39.898279179292601 ], [ -79.726674149327934, 39.898278757621163 ], [ -79.726699179165337, 39.898278338229638 ], [ -79.726724056537108, 39.898277921427344 ], [ -79.726748930614335, 39.898277506707061 ], [ -79.726773786382083, 39.898277095182024 ], [ -79.726798608227426, 39.898276687708851 ], [ -79.726823356347964, 39.89827628521914 ], [ -79.726848086795101, 39.898275888225513 ], [ -79.726872744154207, 39.898275498213337 ], [ -79.726897275016753, 39.898275114545079 ], [ -79.72692194431275, 39.898274740377737 ], [ -79.726946488328281, 39.898274378666088 ], [ -79.726970999742576, 39.898274029848409 ], [ -79.726995486738161, 39.898273696018087 ], [ -79.727019954651709, 39.898273379525648 ], [ -79.72702057508836, 39.898273371758627 ], [ -79.727044415754591, 39.898273083050078 ], [ -79.727045136913759, 39.898273074659549 ], [ -79.72706888191189, 39.898272809671447 ], [ -79.727069716532441, 39.89827280081618 ], [ -79.727093367120148, 39.898272562888771 ], [ -79.727094329200412, 39.898272553819872 ], [ -79.727117887623407, 39.898272346680564 ], [ -79.727118992478779, 39.898272337770159 ], [ -79.727142462006867, 39.89827216557412 ], [ -79.727143726304391, 39.898272157350867 ], [ -79.727167111261821, 39.898272024724463 ], [ -79.727168553023759, 39.898272017916781 ], [ -79.727191858813569, 39.898271930003752 ], [ -79.727193502514353, 39.898271925582961 ], [ -79.72721673564125, 39.898271888249674 ], [ -79.727218595941864, 39.898271887539771 ], [ -79.727241764013968, 39.898271907085928 ], [ -79.727243894361024, 39.898271911872477 ], [ -79.727266993987499, 39.898271996186871 ], [ -79.727269508599534, 39.898272009530423 ], [ -79.7272925867493, 39.898272170219691 ], [ -79.727295112437162, 39.898272192007994 ], [ -79.727318145959373, 39.898272429037064 ], [ -79.727321293983266, 39.898272467961881 ], [ -79.727344316783729, 39.898272800393784 ], [ -79.727347489953814, 39.898272852848329 ], [ -79.72737049390679, 39.898273281234701 ], [ -79.727374352165, 39.898273362899708 ], [ -79.727397373247769, 39.898273908747065 ], [ -79.727401290615049, 39.898274011755277 ], [ -79.727424322728382, 39.898274676931074 ], [ -79.727428790388487, 39.898274819137676 ], [ -79.727451859068935, 39.898275621489354 ], [ -79.727456749057637, 39.898275807372848 ], [ -79.727479871014694, 39.89827676107236 ], [ -79.727485181314833, 39.898276998767386 ], [ -79.727508385691422, 39.898278119019714 ], [ -79.727514178649059, 39.898278420939121 ], [ -79.727537456690371, 39.898279723616831 ], [ -79.727543667131869, 39.898280096790621 ], [ -79.727567063382494, 39.89828159925159 ], [ -79.727573777061494, 39.898282060420037 ], [ -79.727597282488702, 39.898283780272493 ], [ -79.727604399828792, 39.898284334896346 ], [ -79.727628058484939, 39.898286291207377 ], [ -79.72763549182433, 39.898286942941809 ], [ -79.727659283351315, 39.898289147766093 ], [ -79.727667489979154, 39.898289953704371 ], [ -79.727691463338275, 39.898292440913458 ], [ -79.727699892302439, 39.898293363583569 ], [ -79.727724051920205, 39.898296146564434 ], [ -79.727732867559851, 39.898297215092008 ], [ -79.727757224764417, 39.898300314287717 ], [ -79.72776639315218, 39.898301538674176 ], [ -79.727790957045258, 39.898304974346132 ], [ -79.727800447840977, 39.898306364274852 ], [ -79.727825224418396, 39.898310156437141 ], [ -79.727835000988179, 39.898311719739318 ], [ -79.727859992872638, 39.89831588778263 ], [ -79.727870016655274, 39.898317630674924 ], [ -79.727895222659654, 39.898322193056757 ], [ -79.727905454200226, 39.898324120072459 ], [ -79.727930868929036, 39.898329093990441 ], [ -79.727941268896615, 39.898331207995632 ], [ -79.727966882403166, 39.89833660905083 ], [ -79.727977412533619, 39.898338911340112 ], [ -79.728003210051824, 39.89834475319936 ], [ -79.728013833971062, 39.898347243659785 ], [ -79.728039795740443, 39.898353537727409 ], [ -79.728050484094041, 39.898356216208825 ], [ -79.72807658530003, 39.898362971500269 ], [ -79.728087301950097, 39.898365834497781 ], [ -79.72811351277231, 39.898373056972595 ], [ -79.728124243452726, 39.898376105357521 ], [ -79.728150530053298, 39.898383798684797 ], [ -79.728161469968171, 39.898387097740894 ], [ -79.728187788874934, 39.898395270339648 ], [ -79.728198238591688, 39.898398606078757 ], [ -79.728224556467822, 39.898407237929383 ], [ -79.728235290753105, 39.898410856903652 ], [ -79.728261566795155, 39.898419958388601 ], [ -79.72827199626677, 39.898423666241598 ], [ -79.728298161618937, 39.898433209723116 ], [ -79.728308732022256, 39.898437165803145 ], [ -79.728334756010383, 39.898447155794777 ], [ -79.72834501600056, 39.898451192044668 ], [ -79.728370827472162, 39.898461594432696 ], [ -79.728381081680553, 39.898465827647776 ], [ -79.728406637915413, 39.898476631425346 ], [ -79.728416780588461, 39.898481020892618 ], [ -79.728442031188777, 39.8984922046848 ], [ -79.728451962164328, 39.89849670409879 ], [ -79.728476872069223, 39.898508245950161 ], [ -79.728486878906409, 39.898512988675584 ], [ -79.728511373218282, 39.898524860703368 ], [ -79.728521034800423, 39.898529646217561 ], [ -79.728545101789791, 39.898541825979265 ], [ -79.728554826395765, 39.898546855523591 ], [ -79.728578399598902, 39.898559313221938 ], [ -79.728587752010569, 39.89856435984268 ], [ -79.72861082892851, 39.898577072859808 ], [ -79.728620138546532, 39.898582309120386 ], [ -79.728642655615531, 39.898595238067379 ], [ -79.728651837069705, 39.898600619273971 ], [ -79.728673805054456, 39.898613760224144 ], [ -79.728682690172008, 39.898619182351773 ], [ -79.728704087026671, 39.898632501826647 ], [ -79.728712753587629, 39.898638003556343 ], [ -79.728733570236798, 39.898651479115614 ], [ -79.728741994819131, 39.898657038625103 ], [ -79.728762228212545, 39.898670649448 ], [ -79.728770394887306, 39.898676247622653 ], [ -79.728790047280427, 39.898689974896477 ], [ -79.728797936362525, 39.898695588019066 ], [ -79.728817015142425, 39.898709414962184 ], [ -79.728824607517353, 39.898715017361049 ], [ -79.728843124743676, 39.898728929281525 ], [ -79.728850402490821, 39.898734493786492 ], [ -79.728868374378351, 39.898748478085722 ], [ -79.728875321380031, 39.898753976595977 ], [ -79.728892767743659, 39.898768022723843 ], [ -79.728899370246538, 39.898773426866448 ], [ -79.728916313928295, 39.898787526235573 ], [ -79.728922561015096, 39.898792808074916 ], [ -79.728939027310886, 39.898806953941858 ], [ -79.728944913460367, 39.89881208865404 ], [ -79.728960929566028, 39.898826276143325 ], [ -79.728966447781048, 39.898831236528117 ], [ -79.728982042249683, 39.898845462102273 ], [ -79.728987195421979, 39.89885022914806 ], [ -79.729002398235579, 39.898864491446147 ], [ -79.729007319390035, 39.898869171620859 ], [ -79.729022155630844, 39.898883475879309 ], [ -79.729026449044085, 39.898887666029289 ], [ -79.729040958964148, 39.898902000850867 ], [ -79.72904505075887, 39.898906091420166 ], [ -79.729059266441709, 39.89892047264442 ], [ -79.729062991979092, 39.898924283272564 ], [ -79.729076927546402, 39.898938695343482 ], [ -79.729080351583846, 39.898942273183749 ], [ -79.729094050155737, 39.898956735976519 ], [ -79.729097145366154, 39.898960035075142 ], [ -79.729110619284342, 39.898974534127959 ], [ -79.72911342400964, 39.898977578831051 ], [ -79.729126697711877, 39.898992115558563 ], [ -79.729129244934171, 39.898994927848754 ], [ -79.729142356908909, 39.89900952237371 ], [ -79.729144551431574, 39.899011982410357 ], [ -79.729157520703041, 39.899026624551411 ], [ -79.72915967512651, 39.899029074114033 ], [ -79.729172513919934, 39.89904377549766 ], [ -79.729174254794998, 39.899045780504046 ], [ -79.729186992296164, 39.899060535943228 ], [ -79.729188721072177, 39.899062550292534 ], [ -79.729201366122496, 39.899077370372694 ], [ -79.729202726633005, 39.899078972307478 ], [ -79.729215305318661, 39.899093852030973 ], [ -79.729216679563052, 39.899095485376058 ], [ -79.729229197428822, 39.899110434048644 ], [ -79.729230316760365, 39.899111775950814 ], [ -79.72924278687394, 39.899126784027494 ], [ -79.729243774387371, 39.899127976644387 ], [ -79.729256214601534, 39.899143052824222 ], [ -79.729257096621581, 39.899144125071075 ], [ -79.729269524594386, 39.89915928060703 ] ] ] } }
]
}
